[{"OBJECT_NAME":"NUSAT-41 (C PAYNE-G)","OBJECT_ID":"2023-084N","EPOCH":"2026-03-09T21:55:54.837696","MEAN_MOTION":15.29680045,"ECCENTRICITY":0.00062175,"INCLINATION":97.5351,"RA_OF_ASC_NODE":204.1011,"ARG_OF_PERICENTER":322.2064,"MEAN_ANOMALY":37.8738,"EPHEMERIS_TYPE":0,"CLASSIFICATION_TYPE":"U","NORAD_CAT_ID":56944,"ELEMENT_SET_NO":999,"REV_AT_EPOCH":15260,"BSTAR":0.00059912824,"MEAN_MOTION_DOT":0.0001718,"MEAN_MOTION_DDOT":0},{"OBJECT_NAME":"STARLINK-34488","OBJECT_ID":"2025-137L","EPOCH":"2026-03-09T22:17:50.782272","MEAN_MOTION":15.30219235,"ECCENTRICITY":0.00014202,"INCLINATION":53.1609,"RA_OF_ASC_NODE":333.9787,"ARG_OF_PERICENTER":120.7749,"MEAN_ANOMALY":239.3392,"EPHEMERIS_TYPE":0,"CLASSIFICATION_TYPE":"U","NORAD_CAT_ID":64604,"ELEMENT_SET_NO":999,"REV_AT_EPOCH":4077,"BSTAR":0.0011443771,"MEAN_MOTION_DOT":0.00033708,"MEAN_MOTION_DDOT":0}]
